{
  "type": "FeatureCollection",
  "features": [
    {
      "type": "Feature",
      "properties": {
        "norad_id": 35459,
        "name": "COSMOS 2251 DEB",
        "group": "cosmos-2251-debris",
        "lat": -52.51534521594083,
        "lon": 151.33343413220666,
        "alt_km": 784.935819324438,
        "timestamp": "2025-12-20T03:42:47.790453+00:00",
        "meta_object_name": "COSMOS 2251 DEB",
        "meta_object_id": "1993-036ALD",
        "meta_epoch": "2025-12-17T19:11:00.873024",
        "meta_mean_motion": 14.37469257,
        "meta_eccentricity": 0.00161114,
        "meta_inclination": 73.8694,
        "meta_ra_of_asc_node": 177.8806,
        "meta_arg_of_pericenter": 124.2019,
        "meta_mean_anomaly": 236.0663,
        "meta_ephemeris_type": 0,
        "meta_classification_type": "U",
        "meta_norad_cat_id": 35459,
        "meta_element_set_no": 999,
        "meta_rev_at_epoch": 58434,
        "meta_bstar": 0.00020652063,
        "meta_mean_motion_dot": 5.92e-06,
        "meta_mean_motion_ddot": 0,
        "tle_line1": "1 35459U 93036ALD 25351.79931566  .00000592  00000+0  20652-3 0  9992",
        "tle_line2": "2 35459  73.8694 177.8806 0016111 124.2019 236.0663 14.37469257584349"
      },
      "geometry": {
        "type": "Point",
        "coordinates": [
          151.33343413220666,
          -52.51534521594083
        ]
      }
    },
    {
      "type": "Feature",
      "properties": {
        "norad_id": 35462,
        "name": "COSMOS 2251 DEB",
        "group": "cosmos-2251-debris",
        "lat": 28.223685802696107,
        "lon": 66.38030204499046,
        "alt_km": 838.5412246669212,
        "timestamp": "2025-12-20T03:42:47.790463+00:00",
        "meta_object_name": "COSMOS 2251 DEB",
        "meta_object_id": "1993-036ALG",
        "meta_epoch": "2025-12-19T10:12:24.458112",
        "meta_mean_motion": 14.29342636,
        "meta_eccentricity": 0.0086733,
        "meta_inclination": 74.0371,
        "meta_ra_of_asc_node": 256.5417,
        "meta_arg_of_pericenter": 290.2864,
        "meta_mean_anomaly": 68.8979,
        "meta_ephemeris_type": 0,
        "meta_classification_type": "U",
        "meta_norad_cat_id": 35462,
        "meta_element_set_no": 999,
        "meta_rev_at_epoch": 66476,
        "meta_bstar": 0.0010032,
        "meta_mean_motion_dot": 2.635e-05,
        "meta_mean_motion_ddot": 0,
        "tle_line1": "1 35462U 93036ALG 25353.42528308  .00002635  00000+0  10032-2 0  9994",
        "tle_line2": "2 35462  74.0371 256.5417 0086733 290.2864  68.8979 14.29342636664768"
      },
      "geometry": {
        "type": "Point",
        "coordinates": [
          66.38030204499046,
          28.223685802696107
        ]
      }
    },
    {
      "type": "Feature",
      "properties": {
        "norad_id": 35465,
        "name": "COSMOS 2251 DEB",
        "group": "cosmos-2251-debris",
        "lat": -64.29910765175543,
        "lon": 39.80364199456958,
        "alt_km": 752.5301402509431,
        "timestamp": "2025-12-20T03:42:47.790473+00:00",
        "meta_object_name": "COSMOS 2251 DEB",
        "meta_object_id": "1993-036ALK",
        "meta_epoch": "2025-12-17T13:03:02.562624",
        "meta_mean_motion": 14.44331537,
        "meta_eccentricity": 0.00642719,
        "meta_inclination": 73.9967,
        "meta_ra_of_asc_node": 188.0661,
        "meta_arg_of_pericenter": 347.2721,
        "meta_mean_anomaly": 12.6809,
        "meta_ephemeris_type": 0,
        "meta_classification_type": "U",
        "meta_norad_cat_id": 35465,
        "meta_element_set_no": 999,
        "meta_rev_at_epoch": 87311,
        "meta_bstar": 0.00028334394,
        "meta_mean_motion_dot": 9.72e-06,
        "meta_mean_motion_ddot": 0,
        "tle_line1": "1 35465U 93036ALK 25351.54377966  .00000972  00000+0  28334-3 0  9997",
        "tle_line2": "2 35465  73.9967 188.0661 0064271 347.2721  12.6809 14.44331537873113"
      },
      "geometry": {
        "type": "Point",
        "coordinates": [
          39.80364199456958,
          -64.29910765175543
        ]
      }
    },
    {
      "type": "Feature",
      "properties": {
        "norad_id": 35469,
        "name": "COSMOS 2251 DEB",
        "group": "cosmos-2251-debris",
        "lat": -50.98142288834229,
        "lon": -149.3538571302543,
        "alt_km": 714.1325400314208,
        "timestamp": "2025-12-20T03:42:47.790483+00:00",
        "meta_object_name": "COSMOS 2251 DEB",
        "meta_object_id": "1993-036ALP",
        "meta_epoch": "2025-12-19T18:21:45.885888",
        "meta_mean_motion": 14.49825287,
        "meta_eccentricity": 0.007659,
        "meta_inclination": 74.0168,
        "meta_ra_of_asc_node": 10.664,
        "meta_arg_of_pericenter": 164.3143,
        "meta_mean_anomaly": 196.0417,
        "meta_ephemeris_type": 0,
        "meta_classification_type": "U",
        "meta_norad_cat_id": 35469,
        "meta_element_set_no": 999,
        "meta_rev_at_epoch": 88213,
        "meta_bstar": 6.6708e-05,
        "meta_mean_motion_dot": 2.38e-06,
        "meta_mean_motion_ddot": 0,
        "tle_line1": "1 35469U 93036ALP 25353.76511442  .00000238  00000+0  66708-4 0  9999",
        "tle_line2": "2 35469  74.0168  10.6640 0076590 164.3143 196.0417 14.49825287882131"
      },
      "geometry": {
        "type": "Point",
        "coordinates": [
          -149.3538571302543,
          -50.98142288834229
        ]
      }
    },
    {
      "type": "Feature",
      "properties": {
        "norad_id": 35475,
        "name": "COSMOS 2251 DEB",
        "group": "cosmos-2251-debris",
        "lat": -70.91757603309378,
        "lon": 27.163850734197823,
        "alt_km": 656.7642502323124,
        "timestamp": "2025-12-20T03:42:47.790493+00:00",
        "meta_object_name": "COSMOS 2251 DEB",
        "meta_object_id": "1993-036ALV",
        "meta_epoch": "2025-12-19T18:22:09.183648",
        "meta_mean_motion": 14.69869969,
        "meta_eccentricity": 0.002029,
        "meta_inclination": 74.0212,
        "meta_ra_of_asc_node": 151.9956,
        "meta_arg_of_pericenter": 224.7344,
        "meta_mean_anomaly": 135.2192,
        "meta_ephemeris_type": 0,
        "meta_classification_type": "U",
        "meta_norad_cat_id": 35475,
        "meta_element_set_no": 999,
        "meta_rev_at_epoch": 65720,
        "meta_bstar": 0.0012953,
        "meta_mean_motion_dot": 7.746e-05,
        "meta_mean_motion_ddot": 0,
        "tle_line1": "1 35475U 93036ALV 25353.76538407  .00007746  00000+0  12953-2 0  9998",
        "tle_line2": "2 35475  74.0212 151.9956 0020290 224.7344 135.2192 14.69869969657207"
      },
      "geometry": {
        "type": "Point",
        "coordinates": [
          27.163850734197823,
          -70.91757603309378
        ]
      }
    },
    {
      "type": "Feature",
      "properties": {
        "norad_id": 35476,
        "name": "COSMOS 2251 DEB",
        "group": "cosmos-2251-debris",
        "lat": -72.84702432994342,
        "lon": -65.05561725547085,
        "alt_km": 655.9897066846806,
        "timestamp": "2025-12-20T03:42:47.790503+00:00",
        "meta_object_name": "COSMOS 2251 DEB",
        "meta_object_id": "1993-036ALW",
        "meta_epoch": "2025-12-18T23:09:20.948256",
        "meta_mean_motion": 14.75799485,
        "meta_eccentricity": 0.00180044,
        "meta_inclination": 73.9783,
        "meta_ra_of_asc_node": 48.6925,
        "meta_arg_of_pericenter": 27.387,
        "meta_mean_anomaly": 37.4197,
        "meta_ephemeris_type": 0,
        "meta_classification_type": "U",
        "meta_norad_cat_id": 35476,
        "meta_element_set_no": 999,
        "meta_rev_at_epoch": 87979,
        "meta_bstar": 0.0011118951,
        "meta_mean_motion_dot": 7.616e-05,
        "meta_mean_motion_ddot": 0,
        "tle_line1": "1 35476U 93036ALW 25352.96482579  .00007616  00000+0  11119-2 0  9997",
        "tle_line2": "2 35476  73.9783  48.6925 0018004  27.3870  37.4197 14.75799485879798"
      },
      "geometry": {
        "type": "Point",
        "coordinates": [
          -65.05561725547085,
          -72.84702432994342
        ]
      }
    },
    {
      "type": "Feature",
      "properties": {
        "norad_id": 35580,
        "name": "COSMOS 2251 DEB",
        "group": "cosmos-2251-debris",
        "lat": 64.76404542102858,
        "lon": -156.0974743023939,
        "alt_km": 971.9946816640695,
        "timestamp": "2025-12-20T03:42:47.790513+00:00",
        "meta_object_name": "COSMOS 2251 DEB",
        "meta_object_id": "1993-036ALX",
        "meta_epoch": "2025-12-18T20:08:01.258944",
        "meta_mean_motion": 13.83900216,
        "meta_eccentricity": 0.02809393,
        "meta_inclination": 73.9004,
        "meta_ra_of_asc_node": 168.3514,
        "meta_arg_of_pericenter": 172.4097,
        "meta_mean_anomaly": 188.1422,
        "meta_ephemeris_type": 0,
        "meta_classification_type": "U",
        "meta_norad_cat_id": 35580,
        "meta_element_set_no": 999,
        "meta_rev_at_epoch": 62341,
        "meta_bstar": 0.0016080562,
        "meta_mean_motion_dot": 2.398e-05,
        "meta_mean_motion_ddot": 0,
        "tle_line1": "1 35580U 93036ALX 25352.83890346  .00002398  00000+0  16081-2 0  9999",
        "tle_line2": "2 35580  73.9004 168.3514 0280939 172.4097 188.1422 13.83900216623410"
      },
      "geometry": {
        "type": "Point",
        "coordinates": [
          -156.0974743023939,
          64.76404542102858
        ]
      }
    }
  ]
}